ONEWEB-0230             
1 48769U 21045C   23229.17740116 -.00000008  00000+0 -54118-4 0  9993
2 48769  87.9005 105.3512 0001916  80.8462 279.2885 13.15543873109693
ONEWEB-0237             
1 48770U 21045D   23230.15559007 -.00000017  00000+0 -80350-4 0  9999
2 48770  87.8985 105.0781 0001836 100.1309 260.0028 13.15549577109563
ONEWEB-0235             
1 48771U 21045E   23230.12813024 -.00000129  00000+0 -37656-3 0  9993
2 48771  87.8985 105.1153 0001848 110.5430 249.5898 13.15547117109544
ONEWEB-0242             
1 48772U 21045F   23230.19785101  .00000136  00000+0  32838-3 0  9998
2 48772  87.8982 105.0926 0001678  89.2854 270.8468 13.15549773109609
ONEWEB-0241             
1 48773U 21045G   23229.19643462  .00000186  00000+0  46027-3 0  9990
2 48773  87.8997 105.3102 0002218  91.1443 268.9942 13.15547659109383
ONEWEB-0243             
1 48774U 21045H   23230.14080537  .00000018  00000+0  12788-4 0  9998
2 48774  87.8979 105.0817 0001686  99.3745 260.7576 13.15547502109534
ONEWEB-0222             
1 48775U 21045J   23230.13024529 -.00002455  00000+0 -65550-2 0  9999
2 48775  87.8982 105.1205 0001494  90.8946 269.2355 13.15559530109563
ONEWEB-0244             
1 48776U 21045K   23230.22741717  .00000007  00000+0 -15587-4 0  9992
2 48776  87.8978 105.0855 0001541  88.6655 271.4652 13.15553602110149
